COMMENT,ORIGINATOR,NORAD_CAT_ID,OBJECT_NAME,OBJECT_TYPE,CLASSIFICATION_TYPE,INTLDES,EPOCH,EPOCH_MICROSECONDS,MEAN_MOTION,ECCENTRICITY,INCLINATION,RA_OF_ASC_NODE,ARG_OF_PERICENTER,MEAN_ANOMALY,EPHEMERIS_TYPE,ELEMENT_SET_NO,REV_AT_EPOCH,BSTAR,MEAN_MOTION_DOT,MEAN_MOTION_DDOT,FILE,TLE_LINE0,TLE_LINE1,TLE_LINE2,OBJECT_ID,OBJECT_NUMBER,SEMIMAJOR_AXIS,PERIOD,APOGEE,PERIGEE,DECAYED,date
GENERATED VIA SPACETRACK.ORG API,18 SPCS,52183,SPACEBEE-133,PAYLOAD,U,22033AC,2023/3/11 16:15,131712,15.35882943,0.0007477,97.3545,153.8725,158.6627,201.493,0,999,5245,0.0019403,0.00068256,0,3857847,0 SPACEBEE-133,1 52183U 22033AC  23070.67743208  .00068256  00000-0  19403-2 0  9994,2 52183  97.3545 153.8725 0007477 158.6627 201.4930 15.35882943 52458,2022-033AC,52183,6836.436,93.757,463.413,453.19,1,
GENERATED VIA SPACETRACK.ORG API,18 SPCS,52183,SPACEBEE-133,PAYLOAD,U,22033AC,2023/3/12 4:46,756416,15.35957033,0.0007495,97.3543,154.3926,157.4296,202.7279,0,999,5253,0.0020192,0.00071231,0,3858534,0 SPACEBEE-133,1 52183U 22033AC  23071.19863144  .00071231  00000-0  20192-2 0  9998,2 52183  97.3543 154.3926 0007495 157.4296 202.7279 15.35957033 52536,2022-033AC,52183,6836.216,93.753,463.205,452.958,1,
GENERATED VIA SPACETRACK.ORG API,18 SPCS,52183,SPACEBEE-133,PAYLOAD,U,22033AC,2023/3/12 15:42,603264,15.36023539,0.0007396,97.3541,154.8489,155.8564,204.3028,0,999,5260,0.0021342,0.00075493,0,3858743,0 SPACEBEE-133,1 52183U 22033AC  23071.65465976  .00075493  00000-0  21342-2 0  9992,2 52183  97.3541 154.8489 0007396 155.8564 204.3028 15.36023539 52607,2022-033AC,52183,6836.019,93.749,462.94,452.828,1,
GENERATED VIA SPACETRACK.ORG API,18 SPCS,52183,SPACEBEE-133,PAYLOAD,U,22033AC,2023/3/12 17:16,146816,15.3603116,0.0007416,97.3541,154.9138,155.8003,204.3591,0,999,5260,0.0018797,0.00066419,0,3858968,0 SPACEBEE-133,1 52183U 22033AC  23071.71980494  .00066419  00000-0  18797-2 0  9994,2 52183  97.3541 154.9138 0007416 155.8003 204.3591 15.36031160 52604,2022-033AC,52183,6835.996,93.748,462.931,452.792,1,
GENERATED VIA SPACETRACK.ORG API,18 SPCS,52183,SPACEBEE-133,PAYLOAD,U,22033AC,2023/3/13 4:13,92000,15.36093981,0.0007476,97.3539,155.3689,154.2431,205.9186,0,999,5268,0.0016447,0.0005816,0,3859425,0 SPACEBEE-133,1 52183U 22033AC  23072.17581125  .00058160  00000-0  16447-2 0  9997,2 52183  97.3539 155.3689 0007476 154.2431 205.9186 15.36093981 52685,2022-033AC,52183,6835.81,93.744,462.785,452.565,1,
GENERATED VIA SPACETRACK.ORG API,18 SPCS,52183,SPACEBEE-133,PAYLOAD,U,22033AC,2023/3/13 4:13,92000,15.36093981,0.0007476,97.3539,155.3689,154.2431,205.9186,0,999,5267,0.0016447,0.0005816,0,3860293,0 SPACEBEE-133,1 52183U 22033AC  23072.17581125  .00058160  00000-0  16447-2 0  9997,2 52183  97.3539 155.3689 0007476 154.2431 205.9186 15.36093981 52674,2022-033AC,52183,6835.81,93.744,462.785,452.565,1,
GENERATED VIA SPACETRACK.ORG API,18 SPCS,52183,SPACEBEE-133,PAYLOAD,U,22033AC,2023/3/15 4:40,336064,15.36366601,0.0007441,97.3524,157.3858,147.6589,212.5113,0,999,5298,0.0021222,0.00075901,0,3860975,0 SPACEBEE-133,1 52183U 22033AC  23074.19506176  .00075901  00000-0  21222-2 0  9993,2 52183  97.3524 157.3858 0007441 147.6589 212.5113 15.36366601 52980,2022-033AC,52183,6835.001,93.728,461.952,451.78,1,
GENERATED VIA SPACETRACK.ORG API,18 SPCS,52183,SPACEBEE-133,PAYLOAD,U,22033AC,2023/3/15 10:56,301216,15.36404602,0.0007223,97.3529,157.6467,147.4789,212.6901,0,999,5303,0.0021903,0.00078457,0,3861350,0 SPACEBEE-133,1 52183U 22033AC  23074.45558219  .00078457  00000-0  21903-2 0  9992,2 52183  97.3529 157.6467 0007223 147.4789 212.6901 15.36404602 53039,2022-033AC,52183,6834.889,93.725,461.69,451.817,1,
GENERATED VIA SPACETRACK.ORG API,18 SPCS,52183,SPACEBEE-133,PAYLOAD,U,22033AC,2023/3/15 15:37,654208,15.36436276,0.0007272,97.3531,157.8423,146.5435,213.627,0,999,5306,0.0022235,0.00079743,0,3861599,0 SPACEBEE-133,1 52183U 22033AC  23074.65096822  .00079743  00000-0  22235-2 0  9999,2 52183  97.3531 157.8423 0007272 146.5435 213.6270 15.36436276 53063,2022-033AC,52183,6834.795,93.723,461.63,451.689,1,
GENERATED VIA SPACETRACK.ORG API,18 SPCS,52183,SPACEBEE-133,PAYLOAD,U,22033AC,2023/3/16 4:07,849952,15.36520979,0.0007275,97.3545,158.3643,145.0138,215.1586,0,999,5314,0.0021849,0.00078558,0,3862295,0 SPACEBEE-133,1 52183U 22033AC  23075.17197743  .00078558  00000-0  21849-2 0  9994,2 52183  97.3545 158.3643 0007275 145.0138 215.1586 15.36520979 53145,2022-033AC,52183,6834.543,93.718,461.381,451.436,1,
GENERATED VIA SPACETRACK.ORG API,18 SPCS,52183,SPACEBEE-133,PAYLOAD,U,22033AC,2023/3/16 15:04,438208,15.36573379,0.0007244,97.3544,158.8203,142.9165,217.2581,0,999,5320,0.0017205,0.00061812,0,3862555,0 SPACEBEE-133,1 52183U 22033AC  23075.62784072  .00061812  00000-0  17205-2 0  9997,2 52183  97.3544 158.8203 0007244 142.9165 217.2581 15.36573379 53200,2022-033AC,52183,6834.388,93.715,461.204,451.302,1,
GENERATED VIA SPACETRACK.ORG API,18 SPCS,52183,SPACEBEE-133,PAYLOAD,U,22033AC,2023/3/16 15:04,438208,15.36573379,0.0007244,97.3544,158.8203,142.9165,217.2581,0,999,5321,0.0017205,0.00061812,0,3862592,0 SPACEBEE-133,1 52183U 22033AC  23075.62784072  .00061812  00000-0  17205-2 0  9997,2 52183  97.3544 158.8203 0007244 142.9165 217.2581 15.36573379 53211,2022-033AC,52183,6834.388,93.715,461.204,451.302,1,
GENERATED VIA SPACETRACK.ORG API,18 SPCS,52183,SPACEBEE-133,PAYLOAD,U,22033AC,2023/3/17 11:23,342304,15.3666513,0.0007244,97.3544,159.6668,140.573,219.6043,0,999,5334,0.0014192,0.00051052,0,3863278,0 SPACEBEE-133,1 52183U 22033AC  23076.47440211  .00051052  00000-0  14192-2 0  9992,2 52183  97.3544 159.6668 0007244 140.5730 219.6043 15.36665130 53347,2022-033AC,52183,6834.116,93.709,460.932,451.03,1,
GENERATED VIA SPACETRACK.ORG API,18 SPCS,52183,SPACEBEE-133,PAYLOAD,U,22033AC,2023/3/17 11:23,342304,15.3666513,0.0007244,97.3544,159.6668,140.573,219.6043,0,999,5333,0.0014192,0.00051052,0,3863486,0 SPACEBEE-133,1 52183U 22033AC  23076.47440211  .00051052  00000-0  14192-2 0  9992,2 52183  97.3544 159.6668 0007244 140.5730 219.6043 15.36665130 53336,2022-033AC,52183,6834.116,93.709,460.932,451.03,1,
GENERATED VIA SPACETRACK.ORG API,18 SPCS,52183,SPACEBEE-133,PAYLOAD,U,22033AC,2023/3/18 18:38,703392,15.36804601,0.00071,97.3545,160.9692,136.6169,223.5635,0,999,5353,0.001447,0.00052294,0,3864434,0 SPACEBEE-133,1 52183U 22033AC  23077.77670953  .00052294  00000-0  14470-2 0  9992,2 52183  97.3545 160.9692 0007100 136.6169 223.5635 15.36804601 53533,2022-033AC,52183,6833.703,93.701,460.42,450.716,1,
GENERATED VIA SPACETRACK.ORG API,18 SPCS,52183,SPACEBEE-133,PAYLOAD,U,22033AC,2023/3/18 18:38,703392,15.36804601,0.00071,97.3545,160.9692,136.6169,223.5635,0,999,5354,0.001447,0.00052294,0,3864479,0 SPACEBEE-133,1 52183U 22033AC  23077.77670953  .00052294  00000-0  14470-2 0  9992,2 52183  97.3545 160.9692 0007100 136.6169 223.5635 15.36804601 53544,2022-033AC,52183,6833.703,93.701,460.42,450.716,1,
GENERATED VIA SPACETRACK.ORG API,18 SPCS,52183,SPACEBEE-133,PAYLOAD,U,22033AC,2023/3/19 4:01,393536,15.36851383,0.000718,97.3544,161.3595,135.671,224.5111,0,999,5360,0.0013294,0.00048085,0,3865049,0 SPACEBEE-133,1 52183U 22033AC  23078.16737724  .00048085  00000-0  13294-2 0  9992,2 52183  97.3544 161.3595 0007180 135.6710 224.5111 15.36851383 53605,2022-033AC,52183,6833.564,93.698,460.335,450.522,1,
GENERATED VIA SPACETRACK.ORG API,18 SPCS,52183,SPACEBEE-133,PAYLOAD,U,22033AC,2023/3/19 18:04,208960,15.36916155,0.000709,97.3542,161.9461,133.2198,226.9639,0,999,5368,0.0015457,0.00056095,0,3865310,0 SPACEBEE-133,1 52183U 22033AC  23078.75335890  .00056095  00000-0  15457-2 0  9998,2 52183  97.3542 161.9461 0007090 133.2198 226.9639 15.36916155 53683,2022-033AC,52183,6833.372,93.694,460.082,450.392,1,
GENERATED VIA SPACETRACK.ORG API,18 SPCS,52183,SPACEBEE-133,PAYLOAD,U,22033AC,2023/3/19 18:04,208960,15.36916155,0.000709,97.3542,161.9461,133.2198,226.9639,0,999,5369,0.0015457,0.00056095,0,3865354,0 SPACEBEE-133,1 52183U 22033AC  23078.75335890  .00056095  00000-0  15457-2 0  9998,2 52183  97.3542 161.9461 0007090 133.2198 226.9639 15.36916155 53694,2022-033AC,52183,6833.372,93.694,460.082,450.392,1,
GENERATED VIA SPACETRACK.ORG API,18 SPCS,52183,SPACEBEE-133,PAYLOAD,U,22033AC,2023/3/20 5:01,574368,15.36972578,0.0007122,97.3541,162.4015,132.2807,227.9043,0,999,5376,0.001525,0.00055439,0,3865912,0 SPACEBEE-133,1 52183U 22033AC  23079.20910387  .00055439  00000-0  15250-2 0  9991,2 52183  97.3541 162.4015 0007122 132.2807 227.9043 15.36972578 53765,2022-033AC,52183,6833.205,93.691,459.936,450.203,1,
GENERATED VIA SPACETRACK.ORG API,18 SPCS,52183,SPACEBEE-133,PAYLOAD,U,22033AC,2023/3/20 17:31,531744,15.37030265,0.0007005,97.3538,162.923,130.3243,229.8614,0,999,5384,0.00155,0.0005646,0,3866115,0 SPACEBEE-133,1 52183U 22033AC  23079.72993671  .00056460  00000-0  15500-2 0  9998,2 52183  97.3538 162.9230 0007005 130.3243 229.8614 15.37030265 53841,2022-033AC,52183,6833.034,93.687,459.685,450.112,1,
GENERATED VIA SPACETRACK.ORG API,18 SPCS,52183,SPACEBEE-133,PAYLOAD,U,22033AC,2023/3/20 19:04,390336,15.37038193,0.0006992,97.3537,162.9879,130.2495,229.9362,0,999,5384,0.0015495,0.00056456,0,3866081,0 SPACEBEE-133,1 52183U 22033AC  23079.79503924  .00056456  00000-0  15495-2 0  9991,2 52183  97.3537 162.9879 0006992 130.2495 229.9362 15.37038193 53840,2022-033AC,52183,6833.01,93.687,459.653,450.098,1,
GENERATED VIA SPACETRACK.ORG API,18 SPCS,52183,SPACEBEE-133,PAYLOAD,U,22033AC,2023/3/21 4:27,915488,15.37091305,0.0007014,97.3537,163.3784,129.4948,230.6918,0,999,5391,0.0016331,0.00059633,0,3866730,0 SPACEBEE-133,1 52183U 22033AC  23080.18564717  .00059633  00000-0  16331-2 0  9993,2 52183  97.3537 163.3784 0007014 129.4948 230.6918 15.37091305 53917,2022-033AC,52183,6832.853,93.683,459.51,449.925,1,
